0 PSLV R/B
1 23828U 96017B   13282.49924384  .00000085  00000-0  57645-4 0  5894
2 23828 098.5630 228.0944 0034218 022.7835 111.7544 14.21610755910566
0 PSLV R/B
1 23828U 96017B   13283.96080399  .00000084  00000-0  57367-4 0  5908
2 23828 098.5632 229.5127 0034137 018.5979 031.6695 14.21611080910771
0 PSLV R/B
1 23828U 96017B   13285.52493815  .00000039  00000-0  37003-4 0  5919
2 23828 098.5636 231.0304 0034035 014.0544 116.6012 14.21611641910990
0 PSLV R/B
1 23828U 96017B   13286.84776502  .00000074  00000-0  52758-4 0  5926
2 23828 098.5640 232.3140 0033976 010.2367 046.5485 14.21611681911182
0 PSLV R/B
1 23828U 96017B   13288.18285429  .00000125  00000-0  76105-4 0  5938
2 23828 098.5645 233.6095 0033886 006.3480 039.2881 14.21612208911378
0 PSLV R/B
1 23828U 96017B   13289.46681828  .00000084  00000-0  57326-4 0  5942
2 23828 098.5648 234.8555 0033809 002.5792 130.4080 14.21612793911558
0 PSLV R/B
1 23828U 96017B   13290.71986069  .00000105  00000-0  66773-4 0  5958
2 23828 098.5650 236.0716 0033735 358.9130 063.2684 14.21613038911732
0 PSLV R/B
1 23828U 96017B   13291.76993943  .00000118  00000-0  72641-4 0  5969
2 23828 098.5652 237.0907 0033676 355.8450 037.3919 14.21613053911888
0 PSLV R/B
1 23828U 96017B   13292.82944216  .00000139  00000-0  82357-4 0  5975
2 23828 098.5652 238.1191 0033603 352.7749 059.7203 14.21613284912030
0 PSLV R/B
1 23828U 96017B   13294.09833461  .00000130  00000-0  78117-4 0  5986
2 23828 098.5654 239.3508 0033533 349.0448 073.7180 14.21613996912214
0 PSLV R/B
1 23828U 96017B   13295.51943699  .00000127  00000-0  76827-4 0  5992
2 23828 098.5655 240.7303 0033472 344.8218 146.7519 14.21614629912417
